EUTELSAT 7A             
1 28187U 04008A   25346.96208686  .00000114  00000+0  00000+0 0  9997
2 28187   5.3588  74.2469 0001584 236.7925 337.9975  1.00272348 79489
EUTELSAT 174A           
1 28924U 05052A   25346.88153532  .00000021  00000+0  00000+0 0  9993
2 28924   3.7489  78.8511 0006307 183.0449 311.2929  1.00273923 50462
EUTELSAT HOTBIRD 13B    
1 29270U 06032A   25346.92495558  .00000168  00000+0  00000+0 0  9991
2 29270   1.1814  84.3689 0003747 171.9791 191.5886  1.00269873 45442
EUTELSAT HOTBIRD 13C    
1 33459U 08065A   25346.98028697 -.00000270  00000+0  00000+0 0  9990
2 33459   2.4725  81.4214 0001536 225.7577  79.9609  1.00046439 45473
EUTELSAT 36B            
1 36101U 09065A   25346.92833559  .00000124  00000+0  00000+0 0  9990
2 36101   0.0408  15.3507 0006285 247.0531 204.1779  1.00274270 58847
EUTELSAT KA-SAT 9A      
1 37258U 10069A   25346.34628181  .00000072  00000+0  00000+0 0  9991
2 37258   0.0499 336.3968 0002053 207.7205  30.8629  1.00270560 42139
EUTELSAT 7 WEST A       
1 37816U 11051A   25346.98826035 -.00000047  00000+0  00000+0 0  9994
2 37816   0.0638 343.4361 0005591 243.9235 203.0352  1.00271492 52015
EUTELSAT 16A            
1 37836U 11057A   25346.92157556  .00000117  00000+0  00000+0 0  9998
2 37836   0.0597  10.5603 0006039 255.5046 163.5644  1.00272397  5465
